NORAD_CAT_ID,OBJECT_NAME,OBJECT_TYPE,EPOCH,MEAN_MOTION,ECCENTRICITY,INCLINATION,RA_OF_ASC_NODE,ARG_OF_PERICENTER,MEAN_ANOMALY,BSTAR,MEAN_MOTION_DOT,MEAN_MOTION_DDOT,TLE_LINE0,TLE_LINE1,TLE_LINE2,SEMIMAJOR_AXIS,PERIOD,APOGEE,PERIGEE,DECAYED
53623.0,STARLINK-4573,PAYLOAD,2023-06-03 02:39:15,15.08838393,0.0001209,53.2167,90.6591,97.5087,262.6042,2.1165e-05,4.9e-07,0.0,0 STARLINK-4573,1 53623U 22104AM  23154.11059663  .00000049  00000-0  21165-4 0  9996,2 53623  53.2167  90.6591 0001209  97.5087 262.6042 15.08838393 43189,6917.885,95.438,540.587,538.914,0.0
53623.0,STARLINK-4573,PAYLOAD,2023-06-03 20:08:30,15.08834481,0.0001145,53.2168,87.3877,89.5737,270.5386,2.7032e-05,1.42e-06,0.0,0 STARLINK-4573,1 53623U 22104AM  23154.83924124  .00000142  00000-0  27032-4 0  9991,2 53623  53.2168  87.3877 0001145  89.5737 270.5386 15.08834481 43297,6917.897,95.438,540.554,538.97,0.0
53623.0,STARLINK-4573,PAYLOAD,2023-06-04 02:30:02,15.08839406,0.0001047,53.2165,86.2007,91.5192,268.592,3.8742e-05,3.29e-06,0.0,0 STARLINK-4573,1 53623U 22104AM  23155.10419879  .00000329  00000-0  38742-4 0  9995,2 53623  53.2165  86.2007 0001047  91.5192 268.5920 15.08839406 42658,6917.882,95.438,540.472,539.023,0.0
53623.0,STARLINK-4573,PAYLOAD,2023-06-04 19:59:17,15.08836334,0.0001044,53.2165,82.9299,96.2142,263.8969,2.2052e-05,6.3e-07,0.0,0 STARLINK-4573,1 53623U 22104AM  23155.83284279  .00000063  00000-0  22052-4 0  9991,2 53623  53.2165  82.9299 0001044  96.2142 263.8969 15.08836334 43444,6917.892,95.438,540.479,539.034,0.0
53623.0,STARLINK-4573,PAYLOAD,2023-06-05 05:31:35,15.08843733,0.0001023,53.2167,81.1452,92.6911,267.4198,7.8145e-05,9.56e-06,0.0,0 STARLINK-4573,1 53623U 22104AM  23156.23027653  .00000956  00000-0  78145-4 0  9992,2 53623  53.2167  81.1452 0001023  92.6911 267.4198 15.08843733 42825,6917.869,95.437,540.442,539.026,0.0
53623.0,STARLINK-4573,PAYLOAD,2023-06-05 11:53:08,15.08837715,9.92e-05,53.2168,79.9565,96.704,263.4065,4.5368e-05,4.34e-06,0.0,0 STARLINK-4573,1 53623U 22104AM  23156.49524188  .00000434  00000-0  45368-4 0  9997,2 53623  53.2168  79.9565 0000992  96.7040 263.4065 15.08837715 43540,6917.887,95.438,540.439,539.066,0.0
53623.0,STARLINK-4573,PAYLOAD,2023-06-06 03:47:00,15.08843263,9.55e-05,53.217,76.9827,94.0211,266.0891,6.3235e-05,7.19e-06,0.0,0 STARLINK-4573,1 53623U 22104AM  23157.15763890  .00000719  00000-0  63235-4 0  9995,2 53623  53.2170  76.9827 0000955  94.0211 266.0891 15.08843263 43643,6917.87,95.437,540.396,539.075,0.0
53623.0,STARLINK-4573,PAYLOAD,2023-06-06 18:05:29,15.08815415,0.0001188,53.2169,74.3063,89.1614,270.9514,5.8087e-05,6.36e-06,0.0,0 STARLINK-4573,1 53623U 22104AM  23157.75381939  .00000636  00000-0  58087-4 0  9998,2 53623  53.2169  74.3063 0001188  89.1614 270.9514 15.08815415 43055,6917.956,95.439,540.642,538.999,0.0
53623.0,STARLINK-4573,PAYLOAD,2023-06-06 19:40:53,15.08823525,0.0001002,53.2176,74.007,104.3429,255.7675,-0.00012721,-2.311e-05,0.0,0 STARLINK-4573,1 53623U 22104AM  23157.82006243 -.00002311  00000-0 -12721-3 0  9996,2 53623  53.2176  74.0070 0001002 104.3429 255.7675 15.08823525 43743,6917.931,95.439,540.489,539.103,0.0
53623.0,STARLINK-4573,PAYLOAD,2023-06-06 22:51:40,15.08810713,5.44e-05,53.217,73.4141,71.6124,288.4927,-0.00020366,-3.525e-05,0.0,0 STARLINK-4573,1 53623U 22104AM  23157.95255451 -.00003525  00000-0 -20366-3 0  9999,2 53623  53.2170  73.4141 0000544  71.6124 288.4927 15.08810713 43082,6917.97,95.439,540.211,539.459,0.0
53623.0,STARLINK-4573,PAYLOAD,2023-06-07 03:37:50,15.0881069,8.6e-05,53.2174,72.5213,95.055,265.054,-0.00019908,-3.452e-05,0.0,0 STARLINK-4573,1 53623U 22104AM  23158.15127793 -.00003452  00000-0 -19908-3 0  9998,2 53623  53.2174  72.5213 0000860  95.0550 265.0540 15.08810690 43794,6917.97,95.439,540.43,539.24,0.0
53623.0,STARLINK-4573,PAYLOAD,2023-06-07 21:07:03,15.08835184,7.82e-05,53.2168,69.2538,80.7359,279.3722,6.5327e-05,7.52e-06,0.0,0 STARLINK-4573,1 53623U 22104AM  23158.87989813  .00000752  00000-0  65327-4 0  9991,2 53623  53.2168  69.2538 0000782  80.7359 279.3722 15.08835184 43909,6917.895,95.438,540.301,539.219,0.0
53623.0,STARLINK-4573,PAYLOAD,2023-06-08 00:17:49,15.08836288,7.56e-05,53.2175,68.6567,110.5076,249.5997,7.8632e-05,9.64e-06,0.0,0 STARLINK-4573,1 53623U 22104AM  23159.01237645  .00000964  00000-0  78632-4 0  9995,2 53623  53.2175  68.6567 0000756 110.5076 249.5997 15.08836288 43247,6917.892,95.438,540.28,539.234,0.0
53623.0,STARLINK-4573,PAYLOAD,2023-06-08 22:33:12,15.08837033,8.88e-05,53.2176,64.4926,113.853,246.2556,0.00036495,5.525e-05,0.0,0 STARLINK-4573,1 53623U 22104AM  23159.93972588  .00005525  00000-0  36495-3 0  9996,2 53623  53.2176  64.4926 0000888 113.8530 246.2556 15.08837033 43387,6917.889,95.438,540.369,539.14,0.0
53623.0,STARLINK-4573,PAYLOAD,2023-06-09 00:08:35,15.0884019,7.5e-05,53.2175,64.1952,107.118,252.9894,0.00036367,5.505e-05,0.0,0 STARLINK-4573,1 53623U 22104AM  23160.00596419  .00005505  00000-0  36367-3 0  9997,2 53623  53.2175  64.1952 0000750 107.1180 252.9894 15.08840190 44071,6917.88,95.438,540.264,539.226,0.0
53623.0,STARLINK-4573,PAYLOAD,2023-06-09 23:59:22,15.08849739,7.48e-05,53.2182,59.7345,98.023,262.0847,-3.1777e-05,-7.93e-06,0.0,0 STARLINK-4573,1 53623U 22104AM  23160.99956893 -.00000793  00000-0 -31777-4 0  9998,2 53623  53.2182  59.7345 0000748  98.0230 262.0847 15.08849739 43545,6917.851,95.437,540.233,539.198,0.0
53623.0,STARLINK-4573,PAYLOAD,2023-06-10 17:28:37,15.08836022,5.94e-05,53.2194,56.4681,78.6617,281.4441,-0.00011716,-2.151e-05,0.0,0 STARLINK-4573,1 53623U 22104AM  23161.72821670 -.00002151  00000-0 -11716-3 0  9994,2 53623  53.2194  56.4681 0000594  78.6617 281.4441 15.08836022 43655,6917.893,95.438,540.168,539.347,0.0
53623.0,STARLINK-4573,PAYLOAD,2023-06-11 03:00:55,15.08851588,9.94e-05,53.2173,54.6799,83.7342,276.3763,-2.8826e-05,-7.47e-06,0.0,0 STARLINK-4573,1 53623U 22104AM  23162.12564248 -.00000747  00000-0 -28826-4 0  9994,2 53623  53.2173  54.6799 0000994  83.7342 276.3763 15.08851588 43719,6917.845,95.437,540.398,539.022,0.0
53623.0,STARLINK-4573,PAYLOAD,2023-06-11 09:22:28,15.08841598,9.81e-05,53.2184,53.4889,88.4564,271.654,8.9972e-06,-1.45e-06,0.0,0 STARLINK-4573,1 53623U 22104AM  23162.39060726 -.00000145  00000-0  89972-5 0  9996,2 53623  53.2184  53.4889 0000981  88.4564 271.6540 15.08841598 43757,6917.876,95.437,540.419,539.062,0.0
53623.0,STARLINK-4573,PAYLOAD,2023-06-11 17:19:24,15.08835895,0.000106,53.2179,52.0033,92.0714,268.04,-5.4879e-05,-1.161e-05,0.0,0 STARLINK-4573,1 53623U 22104AM  23162.72181373 -.00001161  00000-0 -54879-4 0  9992,2 53623  53.2179  52.0033 0001060  92.0714 268.0400 15.08835895 43808,6917.893,95.438,540.491,539.025,0.0
53623.0,STARLINK-4573,PAYLOAD,2023-06-12 01:16:20,15.08839959,0.0001197,53.2155,50.5181,93.645,266.4679,-7.3264e-06,-4.04e-06,0.0,0 STARLINK-4573,1 53623U 22104AM  23163.05301006 -.00000404  00000-0 -73264-5 0  9995,2 53623  53.2155  50.5181 0001197  93.6450 266.4679 15.08839959 43854,6917.881,95.438,540.574,538.917,0.0
53623.0,STARLINK-4573,PAYLOAD,2023-06-12 09:13:15,15.08838691,0.0001145,53.2187,49.0322,91.6985,268.4139,-5.4522e-05,-1.155e-05,0.0,0 STARLINK-4573,1 53623U 22104AM  23163.38421216 -.00001155  00000-0 -54522-4 0  9996,2 53623  53.2187  49.0322 0001145  91.6985 268.4139 15.08838691 44589,6917.884,95.438,540.541,538.957,0.0
53623.0,STARLINK-4573,PAYLOAD,2023-06-12 18:45:34,15.08835814,0.0001061,53.218,47.2477,91.2267,268.8847,2.1259e-05,5.1e-07,0.0,0 STARLINK-4573,1 53623U 22104AM  23163.78165390  .00000051  00000-0  21259-4 0  9991,2 53623  53.2180  47.2477 0001061  91.2267 268.8847 15.08835814 44640,6917.893,95.438,540.492,539.024,0.0
53623.0,STARLINK-4573,PAYLOAD,2023-06-13 01:07:06,15.08843239,0.0001049,53.2179,46.0577,92.4106,267.7006,7.7092e-05,9.39e-06,0.0,0 STARLINK-4573,1 53623U 22104AM  23164.04660750  .00000939  00000-0  77092-4 0  9992,2 53623  53.2179  46.0577 0001049  92.4106 267.7006 15.08843239 44686,6917.87,95.437,540.461,539.01,0.0
53623.0,STARLINK-4573,PAYLOAD,2023-06-13 18:36:22,15.0883216,0.0001145,53.2175,42.7866,91.4465,268.6658,5.2401e-05,5.46e-06,0.0,0 STARLINK-4573,1 53623U 22104AM  23164.77525602  .00000546  00000-0  52401-4 0  9999,2 53623  53.2175  42.7866 0001145  91.4465 268.6658 15.08832160 44796,6917.904,95.438,540.561,538.977,0.0
53623.0,STARLINK-4573,PAYLOAD,2023-06-14 00:57:54,15.08840815,0.0001133,53.2174,41.5966,92.6075,267.5047,8.0924e-05,1e-05,0.0,0 STARLINK-4573,1 53623U 22104AM  23165.04021016  .00001000  00000-0  80924-4 0  9997,2 53623  53.2174  41.5966 0001133  92.6075 267.5047 15.08840815 44156,6917.878,95.438,540.527,538.959,0.0
53623.0,STARLINK-4573,PAYLOAD,2023-06-14 10:30:13,15.08839093,0.0001092,53.2174,39.8112,101.154,258.9575,4.2033e-06,-2.21e-06,0.0,0 STARLINK-4573,1 53623U 22104AM  23165.43765297 -.00000221  00000-0  42033-5 0  9991,2 53623  53.2174  39.8112 0001092 101.1540 258.9575 15.08839093 44893,6917.883,95.438,540.504,538.993,0.0
53623.0,STARLINK-4573,PAYLOAD,2023-06-14 21:37:55,15.08823192,0.0001156,53.2174,37.7305,108.4842,251.6276,0.00024677,3.64e-05,0.0,0 STARLINK-4573,1 53623U 22104AM  23165.90133846  .00003640  00000-0  24677-3 0  9991,2 53623  53.2174  37.7305 0001156 108.4842 251.6276 15.08823192 44969,6917.932,95.439,540.596,538.997,0.0
53623.0,STARLINK-4573,PAYLOAD,2023-06-15 11:56:23,15.08838016,0.0001273,53.2165,35.0535,108.9233,251.1897,3.8649e-05,3.27e-06,0.0,0 STARLINK-4573,1 53623U 22104AM  23166.49749330  .00000327  00000-0  38649-4 0  9991,2 53623  53.2165  35.0535 0001273 108.9233 251.1897 15.08838016 45050,6917.886,95.438,540.632,538.871,0.0
53623.0,STARLINK-4573,PAYLOAD,2023-06-15 16:42:32,15.08840818,0.0001169,53.2174,34.1619,94.6511,265.4615,8.024e-06,-1.6e-06,0.0,0 STARLINK-4573,1 53623U 22104AM  23166.69621360 -.00000160  00000-0  80240-5 0  9996,2 53623  53.2174  34.1619 0001169  94.6511 265.4615 15.08840818 44404,6917.878,95.438,540.552,538.934,0.0
